ONEWEB-0694             
1 56722U 23068N   24034.58334491  .00000014  00000+0  00000+0 0  9994
2 56722  87.8238  40.8447 0016061  60.5736  85.4527 13.43355614 38678
ONEWEB-0696             
1 56723U 23068P   24034.55289793  .00000161  00000+0  39363-3 0  9997
2 56723  87.8958  71.3282 0002183  98.1259 262.0118 13.15547249 35684
ONEWEB-0703             
1 56724U 23068Q   24034.56246046  .00000092  00000+0  21140-3 0  9990
2 56724  87.8957  71.3480 0003180 104.0145 256.1339 13.15549156 35579
ONEWEB-0721             
1 56725U 23068R   24034.51598166  .00002275  00000+0  26941-3 0  9998
2 56725  86.6757  32.3301 0012421  39.9420 320.2715 14.84079905 38531
